{
  "type": "FeatureCollection",
  "features": [
    {
      "type": "Feature",
      "properties": {
        "norad_id": 34540,
        "name": "IRIDIUM 33 DEB",
        "group": "iridium-33-debris",
        "lat": 51.66083282786554,
        "lon": -47.08891581900407,
        "alt_km": 643.8693032593737,
        "timestamp": "2025-12-11T08:58:27.510333+00:00",
        "meta_object_name": "IRIDIUM 33 DEB",
        "meta_object_id": "1997-051JH",
        "meta_epoch": "2025-12-11T03:55:52.274208",
        "meta_mean_motion": 14.7526328,
        "meta_eccentricity": 0.0016145,
        "meta_inclination": 86.3106,
        "meta_ra_of_asc_node": 308.3273,
        "meta_arg_of_pericenter": 164.7687,
        "meta_mean_anomaly": 212.0228,
        "meta_ephemeris_type": 0,
        "meta_classification_type": "U",
        "meta_norad_cat_id": 34540,
        "meta_element_set_no": 999,
        "meta_rev_at_epoch": 88998,
        "meta_bstar": 0.0024697,
        "meta_mean_motion_dot": 0.00016792,
        "meta_mean_motion_ddot": 0,
        "tle_line1": "1 34540U 97051JH  25345.16379947  .00016792  00000+0  24697-2 0  9997",
        "tle_line2": "2 34540  86.3106 308.3273 0016145 164.7687 212.0228 14.75263280889981"
      },
      "geometry": {
        "type": "Point",
        "coordinates": [
          -47.08891581900407,
          51.66083282786554
        ]
      }
    },
    {
      "type": "Feature",
      "properties": {
        "norad_id": 34648,
        "name": "IRIDIUM 33 DEB",
        "group": "iridium-33-debris",
        "lat": 28.61604036855102,
        "lon": 100.52453949608507,
        "alt_km": 969.6735129753042,
        "timestamp": "2025-12-11T08:58:27.510344+00:00",
        "meta_object_name": "IRIDIUM 33 DEB",
        "meta_object_id": "1997-051JZ",
        "meta_epoch": "2025-12-10T13:31:51.923424",
        "meta_mean_motion": 14.11387502,
        "meta_eccentricity": 0.0183418,
        "meta_inclination": 86.3907,
        "meta_ra_of_asc_node": 282.8249,
        "meta_arg_of_pericenter": 305.6711,
        "meta_mean_anomaly": 52.7515,
        "meta_ephemeris_type": 0,
        "meta_classification_type": "U",
        "meta_norad_cat_id": 34648,
        "meta_element_set_no": 999,
        "meta_rev_at_epoch": 84930,
        "meta_bstar": 0.012723,
        "meta_mean_motion_dot": 0.00027053,
        "meta_mean_motion_ddot": 0,
        "tle_line1": "1 34648U 97051JZ  25344.56379541  .00027053  00000+0  12723-1 0  9997",
        "tle_line2": "2 34648  86.3907 282.8249 0183418 305.6711  52.7515 14.11387502849304"
      },
      "geometry": {
        "type": "Point",
        "coordinates": [
          100.52453949608507,
          28.61604036855102
        ]
      }
    },
    {
      "type": "Feature",
      "properties": {
        "norad_id": 34651,
        "name": "IRIDIUM 33 DEB",
        "group": "iridium-33-debris",
        "lat": 41.77813074816374,
        "lon": -42.170649402855496,
        "alt_km": 766.7890669316066,
        "timestamp": "2025-12-11T08:58:27.510355+00:00",
        "meta_object_name": "IRIDIUM 33 DEB",
        "meta_object_id": "1997-051KC",
        "meta_epoch": "2025-12-10T20:31:39.361152",
        "meta_mean_motion": 14.25764503,
        "meta_eccentricity": 0.0142095,
        "meta_inclination": 86.2836,
        "meta_ra_of_asc_node": 141.3789,
        "meta_arg_of_pericenter": 209.9439,
        "meta_mean_anomaly": 149.3571,
        "meta_ephemeris_type": 0,
        "meta_classification_type": "U",
        "meta_norad_cat_id": 34651,
        "meta_element_set_no": 999,
        "meta_rev_at_epoch": 85869,
        "meta_bstar": 0.0051973,
        "meta_mean_motion_dot": 0.00013755,
        "meta_mean_motion_ddot": 0,
        "tle_line1": "1 34651U 97051KC  25344.85531668  .00013755  00000+0  51973-2 0  9998",
        "tle_line2": "2 34651  86.2836 141.3789 0142095 209.9439 149.3571 14.25764503858697"
      },
      "geometry": {
        "type": "Point",
        "coordinates": [
          -42.170649402855496,
          41.77813074816374
        ]
      }
    },
    {
      "type": "Feature",
      "properties": {
        "norad_id": 34652,
        "name": "IRIDIUM 33 DEB",
        "group": "iridium-33-debris",
        "lat": 12.84847679522772,
        "lon": -18.55173902893368,
        "alt_km": 681.2943556732789,
        "timestamp": "2025-12-11T08:58:27.510365+00:00",
        "meta_object_name": "IRIDIUM 33 DEB",
        "meta_object_id": "1997-051KD",
        "meta_epoch": "2025-12-09T11:37:22.959264",
        "meta_mean_motion": 14.62008914,
        "meta_eccentricity": 0.00262076,
        "meta_inclination": 86.3314,
        "meta_ra_of_asc_node": 341.4507,
        "meta_arg_of_pericenter": 310.1115,
        "meta_mean_anomaly": 203.3524,
        "meta_ephemeris_type": 0,
        "meta_classification_type": "U",
        "meta_norad_cat_id": 34652,
        "meta_element_set_no": 999,
        "meta_rev_at_epoch": 88436,
        "meta_bstar": 0.0015009226,
        "meta_mean_motion_dot": 7.584e-05,
        "meta_mean_motion_ddot": 0,
        "tle_line1": "1 34652U 97051KD  25343.48429351  .00007584  00000+0  15009-2 0  9995",
        "tle_line2": "2 34652  86.3314 341.4507 0026207 310.1115 203.3524 14.62008914884363"
      },
      "geometry": {
        "type": "Point",
        "coordinates": [
          -18.55173902893368,
          12.84847679522772
        ]
      }
    },
    {
      "type": "Feature",
      "properties": {
        "norad_id": 34690,
        "name": "IRIDIUM 33 DEB",
        "group": "iridium-33-debris",
        "lat": -86.35558618291991,
        "lon": -58.433981281355905,
        "alt_km": 720.9113952287789,
        "timestamp": "2025-12-11T08:58:27.510376+00:00",
        "meta_object_name": "IRIDIUM 33 DEB",
        "meta_object_id": "1997-051KM",
        "meta_epoch": "2025-12-11T02:55:05.414016",
        "meta_mean_motion": 14.5508579,
        "meta_eccentricity": 0.0011042,
        "meta_inclination": 86.378,
        "meta_ra_of_asc_node": 37.6945,
        "meta_arg_of_pericenter": 34.4543,
        "meta_mean_anomaly": 354.2887,
        "meta_ephemeris_type": 0,
        "meta_classification_type": "U",
        "meta_norad_cat_id": 34690,
        "meta_element_set_no": 999,
        "meta_rev_at_epoch": 88071,
        "meta_bstar": 0.00065169,
        "meta_mean_motion_dot": 2.833e-05,
        "meta_mean_motion_ddot": 0,
        "tle_line1": "1 34690U 97051KM  25345.12159044  .00002833  00000+0  65169-3 0  9994",
        "tle_line2": "2 34690  86.3780  37.6945 0011042  34.4543 354.2887 14.55085790880716"
      },
      "geometry": {
        "type": "Point",
        "coordinates": [
          -58.433981281355905,
          -86.35558618291991
        ]
      }
    },
    {
      "type": "Feature",
      "properties": {
        "norad_id": 34693,
        "name": "IRIDIUM 33 DEB",
        "group": "iridium-33-debris",
        "lat": -38.7141644141823,
        "lon": -58.465245195447274,
        "alt_km": 490.5377218622225,
        "timestamp": "2025-12-11T08:58:27.510387+00:00",
        "meta_object_name": "IRIDIUM 33 DEB",
        "meta_object_id": "1997-051KQ",
        "meta_epoch": "2025-12-10T08:38:30.910272",
        "meta_mean_motion": 15.27015384,
        "meta_eccentricity": 0.00144202,
        "meta_inclination": 86.3054,
        "meta_ra_of_asc_node": 305.0067,
        "meta_arg_of_pericenter": 56.9182,
        "meta_mean_anomaly": 94.3145,
        "meta_ephemeris_type": 0,
        "meta_classification_type": "U",
        "meta_norad_cat_id": 34693,
        "meta_element_set_no": 999,
        "meta_rev_at_epoch": 88878,
        "meta_bstar": 0.0067186448,
        "meta_mean_motion_dot": 0.00182624,
        "meta_mean_motion_ddot": 0,
        "tle_line1": "1 34693U 97051KQ  25344.36007998  .00182624  00000+0  67186-2 0  9999",
        "tle_line2": "2 34693  86.3054 305.0067 0014420  56.9182  94.3145 15.27015384888787"
      },
      "geometry": {
        "type": "Point",
        "coordinates": [
          -58.465245195447274,
          -38.7141644141823
        ]
      }
    },
    {
      "type": "Feature",
      "properties": {
        "norad_id": 34696,
        "name": "IRIDIUM 33 DEB",
        "group": "iridium-33-debris",
        "lat": -0.975993508052049,
        "lon": 28.092351166821757,
        "alt_km": 732.2855598580236,
        "timestamp": "2025-12-11T08:58:27.510398+00:00",
        "meta_object_name": "IRIDIUM 33 DEB",
        "meta_object_id": "1997-051KT",
        "meta_epoch": "2025-12-11T02:33:26.981856",
        "meta_mean_motion": 14.64953116,
        "meta_eccentricity": 0.0074148,
        "meta_inclination": 86.185,
        "meta_ra_of_asc_node": 28.2818,
        "meta_arg_of_pericenter": 173.0229,
        "meta_mean_anomaly": 217.0787,
        "meta_ephemeris_type": 0,
        "meta_classification_type": "U",
        "meta_norad_cat_id": 34696,
        "meta_element_set_no": 999,
        "meta_rev_at_epoch": 86649,
        "meta_bstar": 0.0075397,
        "meta_mean_motion_dot": 0.00042238,
        "meta_mean_motion_ddot": 0,
        "tle_line1": "1 34696U 97051KT  25345.10656229  .00042238  00000+0  75397-2 0  9991",
        "tle_line2": "2 34696  86.1850  28.2818 0074148 173.0229 217.0787 14.64953116866490"
      },
      "geometry": {
        "type": "Point",
        "coordinates": [
          28.092351166821757,
          -0.975993508052049
        ]
      }
    }
  ]
}